{"fetched_at":"2026-03-29T02:12:04Z","count":15717,"tles":[{"name":"BANDWAGON-4 OBJECT N","line1":"1 66305U 25248N   26087.35861284  .00021229  00000+0  83888-3 0  9994","line2":"2 66305  45.4129 190.6661 0014830 309.9381  50.0204 15.25134765 20120","category":"Other"}]}